OBJECT_NAME,OBJECT_ID,EPOCH,MEAN_MOTION,ECCENTRICITY,INCLINATION,RA_OF_ASC_NODE,ARG_OF_PERICENTER,MEAN_ANOMALY,EPHEMERIS_TYPE,CLASSIFICATION_TYPE,NORAD_CAT_ID,ELEMENT_SET_NO,REV_AT_EPOCH,BSTAR,MEAN_MOTION_DOT,MEAN_MOTION_DDOT
FLOCK 4BE-6,2024-149BA,2026-06-29T12:45:34.885728,15.39906350,.0002818,97.3796,264.2598,227.4741,132.6267,0,U,60516,999,10417,.3465E-3,.13707E-3,0
FLOCK 4BE-14,2024-149BB,2026-06-29T12:05:33.906624,15.41372807,.000378,97.3702,264.3794,231.7525,128.3381,0,U,60517,999,10422,.35675E-3,.1482E-3,0
FLOCK 4BE-1,2024-149BC,2026-06-28T17:29:18.200832,15.42971481,.00034776,97.3787,264.9159,233.0435,127.0495,0,U,60518,999,10415,.37329761E-3,.16365E-3,0
FLOCK 4BE-28,2024-149BD,2026-06-29T12:03:47.308896,15.45327323,.0003665,97.3758,266.4625,223.9548,136.1409,0,U,60519,999,10434,.36318E-3,.17243E-3,0
IPERDRONE.0,2024-149BE,2026-06-29T11:59:08.568672,15.68497115,.0004176,97.3787,274.3338,198.4416,161.6694,0,U,60520,999,10484,.69159E-3,.78531E-3,0
TRANSPORTER-11 OBJECT BF,2024-149BF,2026-06-28T17:26:23.149248,15.91223430,.00069134,97.3738,276.6100,228.6530,131.4150,0,U,60521,999,10491,.10554974E-2,.333834E-2,.43749846E-4
CONNECTA IOT-2,2024-149BG,2026-06-29T12:34:14.003616,15.24074949,.0004806,97.3842,258.4823,282.9192,77.1509,0,U,60522,999,10377,.17598E-3,.4201E-4,0
CONNECTA IOT-4,2024-149BJ,2026-06-29T12:49:12.872064,15.42596856,.0004678,97.3806,265.0530,229.4935,130.5905,0,U,60524,999,10423,.43188E-3,.18719E-3,0
ORESAT0.5,2024-149BK,2026-06-29T11:40:26.482368,15.45534526,.000487,97.3731,266.6777,219.1622,140.9275,0,U,60525,999,10437,.37598E-3,.17986E-3,0
DEIMOS,2024-149BL,2026-06-28T17:57:19.937952,15.44626295,.00046748,97.3791,266.0622,229.4876,130.5966,0,U,60526,999,10423,.37849323E-3,.17553E-3,0
CUAVA-2,2024-149BM,2026-06-29T11:00:58.072608,15.36390569,.0005532,97.3733,262.0005,239.3837,120.6862,0,U,60527,999,10405,.31952E-3,.11268E-3,0
ERNST,2024-149BN,2026-06-28T19:20:10.166208,15.39503880,.00047267,97.3816,263.6138,242.9517,117.1247,0,U,60528,999,10406,.33433651E-3,.13051E-3,0
TORO,2024-149BQ,2026-06-29T03:24:33.064704,14.96462248,.0001201,97.6782,254.5867,96.6413,263.4945,0,U,60530,999,10174,.18956E-3,.2094E-4,0
HYPSO-2,2024-149BR,2026-06-28T22:48:56.852064,14.98843520,.00012144,97.6814,256.0386,123.8346,236.2993,0,U,60531,999,10181,.23680357E-3,.2799E-4,0
LEMU NGE,2024-149BS,2026-06-28T03:53:23.921952,14.94998667,.00016278,97.6846,253.8997,60.2277,299.9105,0,U,60532,999,10159,.25369147E-3,.2717E-4,0
LEMUR-2-STELLA,2024-149BT,2026-06-29T10:59:22.934112,15.12058242,.0001157,97.6739,262.9676,99.9442,260.1919,0,U,60533,999,10235,.60516E-3,.10348E-3,0
SATELIOT_2,2024-149BU,2026-06-28T22:17:51.952128,14.96400217,.00016538,97.6827,254.6712,85.7516,274.3894,0,U,60534,999,10172,.14389346E-3,.1573E-4,0
NIGHTJAR,2024-149BV,2026-06-29T03:22:24.441888,14.99076671,.0001094,97.6831,256.6795,117.4341,242.6993,0,U,60535,999,14466,.25179E-3,.2998E-4,0
LEMUR-2-MARHISYAM,2024-149BW,2026-06-28T04:26:15.576000,15.11467817,.00031163,97.6885,262.1490,97.4793,262.6791,0,U,60536,999,10214,.62528833E-3,.10521E-3,0
SATELIOT_4,2024-149BX,2026-06-28T22:30:01.965600,14.96703074,.00021206,97.6731,254.1987,34.8884,325.2477,0,U,60537,999,10173,.16062703E-3,.1777E-4,0
PICO-02A021,2024-149BY,2026-06-28T09:58:08.274720,15.03359638,.00040897,97.6770,258.1509,2.0056,358.1185,0,U,60538,999,10142,.35099165E-3,.4708E-4,0
ICEYE-X43,2024-149BZ,2026-06-28T16:55:37.319520,14.99700762,.00079112,97.6822,256.5138,50.2669,309.9250,0,U,60539,999,10184,.29800854E-3,.362E-4,0
HAWK-10A,2024-149CA,2026-06-28T22:29:56.813568,14.96545089,.00041419,97.6889,255.6470,49.4739,310.6843,0,U,60540,999,10174,.12921847E-3,.1412E-4,0
UMBRA-09,2024-149CB,2026-06-29T03:05:29.660064,15.18389240,.0001289,97.6978,267.5405,236.7592,123.3518,0,U,60541,999,10253,.77435E-3,.15873E-3,0
QPS-SAR-8 (AMATERU-IV),2024-149CC,2026-06-28T16:51:05.829984,15.04244749,.00041506,97.6669,258.7551,81.4832,278.6864,0,U,60542,999,10200,.41711715E-3,.5742E-4,0
ARCTIC WEATHER SATELLITE,2024-149CD,2026-06-28T16:56:42.777024,14.89799836,.00036396,97.6799,249.8423,82.5794,277.5838,0,U,60543,999,10101,.82451119E-4,.737E-5,0
CAPELLA-15 (ACADIA-5),2024-149CE,2026-06-29T12:36:18.279648,14.92406677,.0003988,97.6773,253.1201,40.8957,319.2561,0,U,60544,999,10169,.3581E-3,.3613E-4,0
HAWK-10B,2024-149CF,2026-06-28T22:29:44.620800,14.96544355,.0006324,97.6808,254.9901,62.1122,298.0739,0,U,60545,999,10174,.13359764E-3,.1462E-4,0
ICEYE-X39,2024-149CG,2026-06-28T22:50:19.950720,14.99964410,.00065085,97.6768,256.8147,88.7266,271.4703,0,U,60546,999,10188,.25965836E-3,.3168E-4,0
UMBRA-10,2024-149CH,2026-06-28T19:10:21.758880,15.18382548,.00004828,97.6983,267.2335,179.7199,180.4035,0,U,60547,999,10249,.7567832E-3,.15507E-3,0
