FLOCK 4BE-6             
1 60516U 24149BA  26180.53165377  .00013707  00000+0  34650-3 0  9990
2 60516  97.3796 264.2598 0002818 227.4741 132.6267 15.39906350104174
FLOCK 4BE-14            
1 60517U 24149BB  26180.50386466  .00014820  00000+0  35675-3 0  9997
2 60517  97.3702 264.3794 0003780 231.7525 128.3381 15.41372807104220
FLOCK 4BE-1             
1 60518U 24149BC  26179.72868288  .00016365  00000+0  37330-3 0  9993
2 60518  97.3787 264.9159 0003477 233.0435 127.0495 15.42971481104151
FLOCK 4BE-28            
1 60519U 24149BD  26180.50263089  .00017243  00000+0  36318-3 0  9991
2 60519  97.3758 266.4625 0003665 223.9548 136.1409 15.45327323104347
IPERDRONE.0             
1 60520U 24149BE  26180.49940473  .00078531  00000+0  69159-3 0  9996
2 60520  97.3787 274.3338 0004176 198.4416 161.6694 15.68497115104844
TRANSPORTER-11 OBJECT BF
1 60521U 24149BF  26179.72665682  .00333834  43750-4  10555-2 0  9996
2 60521  97.3738 276.6100 0006913 228.6530 131.4150 15.91223430104910
CONNECTA IOT-2          
1 60522U 24149BG  26180.52377319  .00004201  00000+0  17598-3 0  9998
2 60522  97.3842 258.4823 0004806 282.9192  77.1509 15.24074949103775
CONNECTA IOT-4          
1 60524U 24149BJ  26180.53417676  .00018719  00000+0  43188-3 0  9995
2 60524  97.3806 265.0530 0004678 229.4935 130.5905 15.42596856104236
ORESAT0.5               
1 60525U 24149BK  26180.48641762  .00017986  00000+0  37598-3 0  9998
2 60525  97.3731 266.6777 0004870 219.1622 140.9275 15.45534526104376
DEIMOS                  
1 60526U 24149BL  26179.74814743  .00017553  00000+0  37849-3 0  9996
2 60526  97.3791 266.0622 0004674 229.4876 130.5966 15.44626295104234
CUAVA-2                 
1 60527U 24149BM  26180.45900547  .00011268  00000+0  31952-3 0  9991
2 60527  97.3733 262.0005 0005532 239.3837 120.6862 15.36390569104051
ERNST                   
1 60528U 24149BN  26179.80567322  .00013051  00000+0  33434-3 0  9998
2 60528  97.3816 263.6138 0004726 242.9517 117.1247 15.39503880104061
TORO                    
1 60530U 24149BQ  26180.14204936  .00002094  00000+0  18956-3 0  9996
2 60530  97.6782 254.5867 0001201  96.6413 263.4945 14.96462248101747
HYPSO-2                 
1 60531U 24149BR  26179.95065801  .00002799  00000+0  23680-3 0  9992
2 60531  97.6814 256.0386 0001214 123.8346 236.2993 14.98843520101816
LEMU NGE                
1 60532U 24149BS  26179.16208243  .00002717  00000+0  25369-3 0  9991
2 60532  97.6846 253.8997 0001627  60.2277 299.9105 14.94998667101595
LEMUR-2-STELLA          
1 60533U 24149BT  26180.45790433  .00010348  00000+0  60516-3 0  9995
2 60533  97.6739 262.9676 0001157  99.9442 260.1919 15.12058242102358
SATELIOT_2              
1 60534U 24149BU  26179.92907352  .00001573  00000+0  14389-3 0  9993
2 60534  97.6827 254.6712 0001653  85.7516 274.3894 14.96400217101725
NIGHTJAR                
1 60535U 24149BV  26180.14056067  .00002998  00000+0  25179-3 0  9999
2 60535  97.6831 256.6795 0001094 117.4341 242.6993 14.99076671144666
LEMUR-2-MARHISYAM       
1 60536U 24149BW  26179.18490250  .00010521  00000+0  62529-3 0  9999
2 60536  97.6885 262.1490 0003116  97.4793 262.6791 15.11467817102141
SATELIOT_4              
1 60537U 24149BX  26179.93752275  .00001777  00000+0  16063-3 0  9996
2 60537  97.6731 254.1987 0002120  34.8884 325.2477 14.96703074101735
PICO-02A021             
1 60538U 24149BY  26179.41537355  .00004708  00000+0  35099-3 0  9997
2 60538  97.6770 258.1509 0004089   2.0056 358.1185 15.03359638101426
ICEYE-X43               
1 60539U 24149BZ  26179.70529305  .00003620  00000+0  29801-3 0  9992
2 60539  97.6822 256.5138 0007911  50.2669 309.9250 14.99700762101842
HAWK-10A                
1 60540U 24149CA  26179.93746312  .00001412  00000+0  12922-3 0  9991
2 60540  97.6889 255.6470 0004141  49.4739 310.6843 14.96545089101748
UMBRA-09                
1 60541U 24149CB  26180.12881551  .00015873  00000+0  77435-3 0  9996
2 60541  97.6978 267.5405 0001289 236.7592 123.3518 15.18389240102532
QPS-SAR-8 (AMATERU-IV)  
1 60542U 24149CC  26179.70215081  .00005742  00000+0  41712-3 0  9991
2 60542  97.6669 258.7551 0004150  81.4832 278.6864 15.04244749102005
ARCTIC WEATHER SATELLITE
1 60543U 24149CD  26179.70605066  .00000737  00000+0  82451-4 0  9993
2 60543  97.6799 249.8423 0003639  82.5794 277.5838 14.89799836101012
CAPELLA-15 (ACADIA-5)   
1 60544U 24149CE  26180.52521157  .00003613  00000+0  35810-3 0  9996
2 60544  97.6773 253.1201 0003988  40.8957 319.2561 14.92406677101695
HAWK-10B                
1 60545U 24149CF  26179.93732200  .00001462  00000+0  13360-3 0  9999
2 60545  97.6808 254.9901 0006324  62.1122 298.0739 14.96544355101746
ICEYE-X39               
1 60546U 24149CG  26179.95161980  .00003168  00000+0  25966-3 0  9993
2 60546  97.6768 256.8147 0006508  88.7266 271.4703 14.99964410101884
UMBRA-10                
1 60547U 24149CH  26179.79886295  .00015507  00000+0  75678-3 0  9994
2 60547  97.6983 267.2335 0000482 179.7199 180.4035 15.18382548102493
